#dP2024  8 21  6  0  0.00000000      96 __u+U IGS20 EXT  IAC
## 2328 280800.00000000   900.00000000 60543 0.2500000000000
+   52   G02G03G04G05G06G07G08G09G10G11G12G13G14G15G16G17G18
+        G19G20G21G22G23G24G25G26G27G28G29G30G31G32R02R03R04
+        R05R07R08R09R11R12R14R15R16R17R18R19R20R21R22R24R25
+        R26  0  0  0  0  0  0  0  0  0  0  0  0  0  0  0  0
+          0  0  0  0  0  0  0  0  0  0  0  0  0  0  0  0  0
++         8  7  7  8  9  8  8  8  8  8  9  8  8  8  8  9  9
++         8  8  8  7  9  8  9  9  8  7  8  8  8  7  9  7  8
++         7  7  8  9  8  8  9 10  8  8  8 10 11  7  7  9  8
++         8  0  0  0  0  0  0  0  0  0  0  0  0  0  0  0  0
++         0  0  0  0  0  0  0  0  0  0  0  0  0  0  0  0  0
%c M  cc GPS ccc cccc cccc cccc cccc ccccc ccccc ccccc ccccc
%c cc cc ccc ccc cccc cccc cccc cccc ccccc ccccc ccccc ccccc
%f  0.0000000  0.000000000  0.00000000000  0.000000000000000
%f  0.0000000  0.000000000  0.00000000000  0.000000000000000
%i    0    0    0    0      0      0      0      0         0
%i    0    0    0    0      0      0      0      0         0
/* IAC                                ULTRA-RAPID PREDICTION
/* S/V CLOCKS ARE ALIGNED TO GNSS TIME                      
/* G:C1WC2W R:C1PC2P E:C1XC5X C:C2IC6I J:C1CC2S             
/* PCV:IGS20_2317 OL/AL:FES2004  NONE     YN ORB:CoN CLK:CoN
*  2024 08 21 23  0  0.00000000
PG02 -22843.633782 -13555.234055   3497.584419   -374.218344
PG03 -13207.928640  -7376.190413  21677.123355    508.985430
PG04 -22852.993436  -2625.286321  13415.799584    428.723928
PG05   6409.350934  21871.090786 -13762.224004   -183.989830
PG06  -4440.260990  14966.732159  21533.507334     83.187856
PG07 -19985.897354  -1045.940724 -17158.206248    -48.301342
PG08 -14395.641818  -9869.544422 -20246.171807    324.418365
PG09 -25406.342622   7004.826622   3450.203184    323.829296
PG10  10394.267946 -22435.954596  -9022.350246   -100.923557
PG11   8992.654445  21188.789107  13339.298277   -724.754056
PG12  11848.593496  11429.053372  20572.886864   -532.156798
PG13   5171.606850  14288.305601 -22020.339978    672.151840
PG14 -13124.342164  19492.499398 -12116.593668    477.798814
PG15  15585.477385   8592.501177 -20279.974090    195.279864
PG16  -1336.705548 -23992.959505 -11136.401945   -202.204520
PG17 -19718.917181  13931.989716  11679.093145    648.653286
PG18  19198.069935    394.632460 -18425.890600   -647.994943
PG19 -12231.474983  15323.189965  17558.780014    527.727413
PG20   1880.509327  26399.117044  -2990.796826    371.439569
PG21 -21162.456483 -16807.399855  -2031.964399    103.153540
PG22  -9842.859534  24452.159677  -3956.721848    -53.772017
PG23  14584.193413 -11837.538469 -18661.729955    302.626075
PG24  21993.753613  15275.407685    202.039302   -486.522821
PG25  15585.978302  -1627.261548  21078.992484    499.398242
PG26   4332.672850 -25894.967771   2152.411068     95.717367
PG27  -2680.482892 -15251.589670 -21839.713198    -33.290810
PG28   6477.456010 -14089.004006  21552.866494   -381.647755
PG29  25701.067953  -2191.650450   6562.518562   -582.691862
PG30 -12799.057838   9507.666261 -21112.952853   -335.755526
PG31  -4611.854452 -19906.170387  16533.161558   -225.618025
PG32  17645.377892 -15525.199200  12387.953547   -603.980199
PR02 -19963.214154   8365.610290  13592.188357    -24.253414
PR03 -18247.476339  17544.256277  -3360.982939    106.062529
PR04  -6938.186009  16605.214987 -18061.463818    251.027500
PR05   8204.978710   7048.009136 -23093.891789    136.454983
PR07  17898.439955 -17670.104771   4117.869168     89.275995
PR08   6428.410086 -16636.506932  18273.883439     -6.380179
PR09  11761.491078   1267.110053  22615.026107    204.720679
PR11  -2040.469834 -24783.280960   5744.697551     14.088079
PR12 -10146.259513 -19179.643605 -13373.135664     43.915316
PR14  -6065.348907  16226.606392 -18696.197816     26.831750
PR15   2746.908817  25036.352098  -3982.800193     76.627956
PR16  10108.130477  19252.909733  13318.674136     28.464195
PR17 -12281.504309   6015.128813  21528.114363    115.362501
PR18   4479.938628  12289.313582  21905.827567    158.178520
PR19  17608.680457  13427.566069  12673.760054   -288.466295
PR20  23399.966606   5722.899779  -8336.021182   -118.014102
PR21  12932.011403  -5473.961082 -21303.881628   -127.934646
PR22  -5332.037682 -13025.369333 -21248.631582     64.544131
PR24 -23572.842325  -4158.571147   8792.629483    -68.788274
PR25  12369.996034  -5955.683316 -21499.401952   -100.811313
PR26   7663.398007 -17185.303978  17248.279798     10.897684
*  2024 08 21 23 15  0.00000000
PG02 -22879.213048 -13831.727743    660.183484   -374.211457
PG03 -12775.190178  -9806.153184  20977.219092    508.998577
PG04 -21350.840797  -3327.431410  15553.199505    428.730576
PG05   6077.440573  23257.443828 -11399.574086   -183.990985
PG06  -6366.239563  13411.104627  22079.202211     83.165557
PG07 -21383.802888  -2395.388836 -15335.898120    -48.296304
PG08 -12273.219005 -10848.421766 -21091.252297    324.431169
PG09 -24982.079838   6557.991481   6228.152737    323.843407
PG10  10394.082008 -21205.673388 -11602.942900   -100.933775
PG11   7647.692768  20231.412463  15489.539990   -724.758788
PG12  11233.598188  13698.465046  19523.312790   -532.159446
PG13   2762.815299  14838.430610 -22070.176798    672.153790
PG14 -13101.616845  17940.102393 -14347.435051    477.806634
PG15  13661.264240   9798.203936 -21109.502252    195.283778
PG16   -829.865430 -24998.378520  -8566.830002   -202.195214
PG17 -20853.326266  14096.960643   9160.609741    648.644392
PG18  20658.137174   1770.457357 -16705.508924   -647.997590
PG19 -14154.934901  15657.076818  15702.289944    527.732011
PG20   1624.089880  26592.235498   -163.535774    371.439207
PG21 -20712.133582 -16717.366452  -4793.956888    103.152971
PG22  -9910.871846  23762.467925  -6707.202334    -53.775667
PG23  14407.287813  -9620.665161 -20040.334689    302.633820
PG24  21757.479826  15475.035577  -2572.570283   -486.523220
PG25  15285.752050    860.937261  21361.139584    499.398398
PG26   4668.693390 -25441.264619   4927.931161     95.710333
PG27   -414.439982 -16087.990792 -21351.576924    -33.291174
PG28   8470.215880 -12610.790372  21776.370712   -381.660954
PG29  24893.541122  -1733.712147   9236.069753   -582.689829
PG30 -14651.895463   7947.005734 -20574.283781   -335.749399
PG31  -2929.468806 -18731.995957  18216.740918   -225.617681
PG32  18892.625436 -15781.318363   9920.965115   -603.977496
PR02 -18510.457640   7258.939170  16060.978598    -24.253599
PR03 -18300.091714  17816.700902   -155.037542    106.062956
PR04  -8427.137030  18090.337517 -15873.523627    251.029003
PR05   6065.295790   8936.634512 -23103.491088    136.455460
PR07  18019.044306 -17993.762758    913.930383     89.276496
PR08   7923.762447 -18134.787628  16125.797976     -6.380219
PR09  12448.875361   3921.151186  21924.417572    204.722623
PR11  -1976.628910 -23880.387895   8789.741664     14.086999
PR12 -10577.940393 -20606.702014 -10642.625657     43.915721
PR14  -6552.374438  13862.093262 -20360.710207     26.831774
PR15   2718.634526  24339.303603  -7091.382954     76.627641
PR16  10559.556674  20660.965716  10568.856624     28.464437
PR17 -14750.515563   5291.289756  20117.292251    115.365290
PR18   1887.861789  11346.751453  22777.466311    158.180203
PR19  16055.384878  12653.389382  15266.520286   -288.467752
PR20  24260.018902   5824.249061  -5229.418199   -118.015053
PR21  15367.681852  -4751.779005 -19810.069272   -127.937508
PR22  -2822.515524 -12049.757317 -22279.162176     64.536885
PR24 -24468.546512  -4299.766085   5740.493088    -68.789676
PR25  14801.430643  -5122.116788 -20137.163262   -100.811806
PR26   9045.811294 -18612.578659  14943.081820     10.900181
EOF
